SL-16 R/B               
1 23405U 94077B   26191.72238988 -.00000285  00000+0 -12097-3 0  9995
2 23405  70.9827  93.6498 0004058 306.7815  53.2935 14.15575359633649
ARIANE 40+ R/B          
1 23561U 95021B   26191.18813172  .00000136  00000+0  57137-4 0  9990
2 23561  98.4402 260.9298 0007751 129.3535 254.5926 14.39845904636870
SL-16 R/B               
1 23705U 95058B   26191.24062752 -.00000127  00000+0 -40523-4 0  9990
2 23705  71.0215 282.9575 0014608 289.2839  70.6704 14.15508118585199
SL-16 R/B               
1 24298U 96051B   26191.18930947  .00000131  00000+0  97553-4 0  9993
2 24298  70.7650 275.9704 0017400 304.6233  55.3245 14.12454537538948
ORBVIEW 2 (SEASTAR)     
1 24883U 97037A   26190.74182676  .00000148  00000+0  67593-4 0  9996
2 24883  98.8708 358.3882 0003226  71.7834 288.3701 14.35565113525989
SL-16 R/B               
1 25400U 98043G   26191.30600858  .00000011  00000+0  23448-4 0  9990
2 25400  98.8377 145.6657 0010299  25.0584 335.1093 14.26072264456467
SL-16 R/B               
1 25407U 98045B   26191.26206603 -.00000231  00000+0 -92462-4 0  9992
2 25407  71.0120 283.8029 0008430 213.5475 146.5115 14.16207072444459
ISS (ZARYA)             
1 25544U 98067A   26191.66969573  .00005249  00000+0  10345-3 0  9995
2 25544  51.6301 183.8741 0006684 279.9238  80.0995 15.48970863575395
CZ-4B R/B               
1 25732U 99025C   26191.05950940  .00000006  00000+0  23675-4 0  9997
2 25732  98.6473 232.3211 0036928 354.6614  33.4161 14.18287138405515
OKEAN-O                 
1 25860U 99039A   26191.59739230  .00000305  00000+0  46591-4 0  9994
2 25860  97.9304 250.1251 0000990  78.8596 281.2727 14.80494216452573
SL-16 R/B               
1 25861U 99039B   26191.12477792  .00000281  00000+0  42349-4 0  9996
2 25861  97.9825 249.9211 0013938 215.5721 144.4564 14.81867733454996
DELTA 2 R/B             
1 25876U 99041E   26191.81638990  .00001210  00000+0  23287-3 0  9992
2 25876  51.7614 169.3935 0501284 351.8278   7.4707 14.12072183380425
HELIOS 1B               
1 25977U 99064A   26191.64664176  .00000790  00000+0  92291-4 0  9999
2 25977  98.1592  97.4636 0002150  59.9710 300.1719 14.88068191703546
TERRA                   
1 25994U 99068A   26191.85442301  .00000188  00000+0  47181-4 0  9998
2 25994  97.9443 240.4608 0003234 131.2978 317.0558 14.61121475413069
SL-16 R/B               
1 26070U 00006B   26191.02662311 -.00000244  00000+0 -99655-4 0  9990
2 26070  71.0003 200.6011 0016978 347.2271  12.8419 14.15839536365874
TITAN 4B R/B            
1 26474U 00047B   26191.83590874  .00001403  00000+0  91802-4 0  9998
2 26474  67.9872  54.0012 0045940 263.0567  96.5355 15.10319841411504
ENVISAT                 
1 27386U 02009A   26191.34976940  .00000029  00000+0  23408-4 0  9999
2 27386  98.3846 142.1531 0001352  84.3059  63.5741 14.39070079276813
IDEFIX & ARIANE 42P R/B 
1 27422U 02021B   26191.27208050  .00000105  00000+0  56476-4 0  9992
2 27422  98.5942 128.5054 0011586 180.8092 179.3074 14.31092447261555
AQUA                    
1 27424U 02022A   26191.86238751  .00000412  00000+0  91663-4 0  9999
2 27424  98.4292 161.6206 0000813 105.6447 283.9748 14.62193112286733
CZ-4B R/B               
1 27432U 02024C   26191.59859418 -.00000005  00000+0  20325-4 0  9995
2 27432  98.8688 244.2653 0050714  34.9386 110.3090 14.14567773246611
MIDORI II (ADEOS-II)    
1 27597U 02056A   26191.30849168  .00000136  00000+0  71278-4 0  9999
2 27597  98.7892 150.7665 0001680  46.7248 313.4074 14.29361606227811
H-2A R/B                
1 27601U 02056E   26191.65555556  .00000127  00000+0  58694-4 0  9995
2 27601  98.3326 147.4762 0070627 154.3341 200.0518 14.33832351231727
CZ-4B R/B               
1 28059U 03049C   26190.99199359  .00000160  00000+0  48379-4 0  9993
2 28059  98.6906 190.7473 0047336 217.3645 142.4256 14.55113935204384
CZ-2C R/B               
1 28222U 04012C   26189.80327200  .00099446  00000+0  44522-3 0  9992
2 28222  97.7050 268.0571 0011127 210.2414 149.8213 15.83823781223316
SL-16 R/B               
1 28353U 04021B   26191.35481755  .00000168  00000+0  11210-3 0  9997
2 28353  71.0024 335.0662 0006435 229.1860 130.8705 14.14615417140180
CZ-4B R/B               
1 28415U 04035C   26191.66508197  .00004834  00000+0  16224-3 0  9999
2 28415  97.3363 224.4771 0028990 249.5779 110.2349 15.30952275198716
CZ-2C R/B               
1 28480U 04046B   26191.18991296  .00000050  00000+0  33450-4 0  9993
2 28480  98.1925  98.5309 0139855 152.1241 208.7525 14.27032158125975
ARIANE 5 R/B            
1 28499U 04049H   26190.96504801  .00000312  00000+0  41280-4 0  9994
2 28499  98.2737   4.1006 0082885 315.4598  43.9973 14.85475243163948
CZ-2D R/B               
1 28738U 05024B   26191.02468156  .00053547  00000+0  40523-3 0  9990
2 28738  97.3474 211.6350 0001436 209.4582 150.6601 15.72259089158928
ALOS (DAICHI)           
1 28931U 06002A   26190.82412380  .00000659  00000+0  11792-3 0  9999
2 28931  98.1335 146.3228 0000779  84.1885 275.9410 14.70095524 91428
